[{"OBJECT_NAME":"STARLINK-32775","OBJECT_ID":"2025-014H","EPOCH":"2026-03-09T06:26:42.777888","MEAN_MOTION":15.27569146,"ECCENTRICITY":0.00017354,"INCLINATION":42.9992,"RA_OF_ASC_NODE":156.7088,"ARG_OF_PERICENTER":279.0872,"MEAN_ANOMALY":80.9783,"EPHEMERIS_TYPE":0,"CLASSIFICATION_TYPE":"U","NORAD_CAT_ID":62742,"ELEMENT_SET_NO":999,"REV_AT_EPOCH":6319,"BSTAR":0.00094345853,"MEAN_MOTION_DOT":0.00025782,"MEAN_MOTION_DDOT":0},{"OBJECT_NAME":"COSMOS 249 DEB","OBJECT_ID":"1968-091DJ","EPOCH":"2026-03-09T22:59:41.072064","MEAN_MOTION":14.2447733,"ECCENTRICITY":0.04678273,"INCLINATION":62.7651,"RA_OF_ASC_NODE":269.2895,"ARG_OF_PERICENTER":43.0913,"MEAN_ANOMALY":320.579,"EPHEMERIS_TYPE":0,"CLASSIFICATION_TYPE":"U","NORAD_CAT_ID":19362,"ELEMENT_SET_NO":999,"REV_AT_EPOCH":90582,"BSTAR":0.0013749035,"MEAN_MOTION_DOT":0.00010099,"MEAN_MOTION_DDOT":0}]
